STARLINK-35270          
1 65882U 25224A   25308.91668981  .00027116  00000+0  49435-3 0  9994
2 65882  53.1602 232.3300 0001324  87.6124 177.3693 15.49283530  5774
STARLINK-35367          
1 65883U 25224B   25308.73952698  .00106874  00000+0  19020-2 0  9991
2 65883  53.1611 233.1702 0001358 124.4684 235.6453 15.49330750  5676
STARLINK-35384          
1 65884U 25224C   25308.09375819  .00073864  00000+0  13220-2 0  9993
2 65884  53.1600 236.2479 0001831  37.6411 322.4726 15.49341872  5573
STARLINK-35415          
1 65885U 25224D   25308.09306976  .00069914  00000+0  12525-2 0  9990
2 65885  53.1606 236.2444 0001416  99.8436 260.2733 15.49339338  5524
STARLINK-35413          
1 65886U 25224E   25308.73711520  .00430534  00000+0  69307-2 0  9997
2 65886  53.1601 233.1510 0005947 231.3377 128.7101 15.50896374  5628
STARLINK-35332          
1 65887U 25224F   25308.86614030  .00105271  00000+0  18745-2 0  9997
2 65887  53.1602 232.5354 0001880  83.2418 276.8805 15.49323037  5727
STARLINK-35362          
1 65888U 25224G   25308.74017977  .00756635  00000+0  12772-1 0  9991
2 65888  53.1602 233.1778 0001250  72.5011 287.6134 15.48750734  5672
STARLINK-35193          
1 65889U 25224H   25308.91668981  .00020659  00000+0  37881-3 0  9998
2 65889  53.1606 232.0565 0001284 101.6387 294.8581 15.49287445  5802
STARLINK-34542          
1 65890U 25224J   25308.09410194  .00092550  00000+0  16510-2 0  9994
2 65890  53.1605 236.2482 0001820  55.1504 304.9676 15.49333216  5623
STARLINK-34791          
1 65891U 25224K   25308.78184328  .00098115  00000+0  17450-2 0  9995
2 65891  53.1613 232.7097 0001749  82.3798 277.7409 15.49391052  5738
STARLINK-34853          
1 65892U 25224L   25308.80300431  .00101791  00000+0  18107-2 0  9999
2 65892  53.1610 232.8535 0001920 120.4044 239.7155 15.49367881  5664
STARLINK-34921          
1 65893U 25224M   25308.91668981  .00017744  00000+0  32659-3 0  9992
2 65893  53.1608 232.0523 0001321 103.2902 295.1215 15.49289494  5822
