CCSDS_OMM_VERS = 2.0
CREATION_DATE  = 
ORIGINATOR     = 

OBJECT_NAME    = STARLINK-35270
OBJECT_ID      = 2025-224A
CENTER_NAME    = EARTH
REF_FRAME      = TEME
TIME_SYSTEM    = UTC
MEAN_ELEMENT_THEORY = SGP/SGP4

EPOCH          = 2025-11-04T22:00:01.999584
MEAN_MOTION    = 15.49283530
ECCENTRICITY   = .0001324
INCLINATION    = 53.1602
RA_OF_ASC_NODE = 232.3300
ARG_OF_PERICENTER = 87.6124
MEAN_ANOMALY   = 177.3693

EPHEMERIS_TYPE = 0
CLASSIFICATION_TYPE = U
NORAD_CAT_ID   = 65882
ELEMENT_SET_NO = 999
REV_AT_EPOCH   = 577
BSTAR          = .49434796E-3
MEAN_MOTION_DOT = .27116E-3
MEAN_MOTION_DDOT = 0

CCSDS_OMM_VERS = 2.0
CREATION_DATE  = 
ORIGINATOR     = 

OBJECT_NAME    = STARLINK-35367
OBJECT_ID      = 2025-224B
CENTER_NAME    = EARTH
REF_FRAME      = TEME
TIME_SYSTEM    = UTC
MEAN_ELEMENT_THEORY = SGP/SGP4

EPOCH          = 2025-11-04T17:44:55.131072
MEAN_MOTION    = 15.49330750
ECCENTRICITY   = .00013583
INCLINATION    = 53.1611
RA_OF_ASC_NODE = 233.1702
ARG_OF_PERICENTER = 124.4684
MEAN_ANOMALY   = 235.6453

EPHEMERIS_TYPE = 0
CLASSIFICATION_TYPE = U
NORAD_CAT_ID   = 65883
ELEMENT_SET_NO = 999
REV_AT_EPOCH   = 567
BSTAR          = .19020209E-2
MEAN_MOTION_DOT = .106874E-2
MEAN_MOTION_DDOT = 0

CCSDS_OMM_VERS = 2.0
CREATION_DATE  = 
ORIGINATOR     = 

OBJECT_NAME    = STARLINK-35384
OBJECT_ID      = 2025-224C
CENTER_NAME    = EARTH
REF_FRAME      = TEME
TIME_SYSTEM    = UTC
MEAN_ELEMENT_THEORY = SGP/SGP4

EPOCH          = 2025-11-04T02:15:00.707616
MEAN_MOTION    = 15.49341872
ECCENTRICITY   = .00018312
INCLINATION    = 53.1600
RA_OF_ASC_NODE = 236.2479
ARG_OF_PERICENTER = 37.6411
MEAN_ANOMALY   = 322.4726

EPHEMERIS_TYPE = 0
CLASSIFICATION_TYPE = U
NORAD_CAT_ID   = 65884
ELEMENT_SET_NO = 999
REV_AT_EPOCH   = 557
BSTAR          = .13220452E-2
MEAN_MOTION_DOT = .73864E-3
MEAN_MOTION_DDOT = 0

CCSDS_OMM_VERS = 2.0
CREATION_DATE  = 
ORIGINATOR     = 

OBJECT_NAME    = STARLINK-35415
OBJECT_ID      = 2025-224D
CENTER_NAME    = EARTH
REF_FRAME      = TEME
TIME_SYSTEM    = UTC
MEAN_ELEMENT_THEORY = SGP/SGP4

EPOCH          = 2025-11-04T02:14:01.227264
MEAN_MOTION    = 15.49339338
ECCENTRICITY   = .00014165
INCLINATION    = 53.1606
RA_OF_ASC_NODE = 236.2444
ARG_OF_PERICENTER = 99.8436
MEAN_ANOMALY   = 260.2733

EPHEMERIS_TYPE = 0
CLASSIFICATION_TYPE = U
NORAD_CAT_ID   = 65885
ELEMENT_SET_NO = 999
REV_AT_EPOCH   = 552
BSTAR          = .12525467E-2
MEAN_MOTION_DOT = .69914E-3
MEAN_MOTION_DDOT = 0

CCSDS_OMM_VERS = 2.0
CREATION_DATE  = 
ORIGINATOR     = 

OBJECT_NAME    = STARLINK-35413
OBJECT_ID      = 2025-224E
CENTER_NAME    = EARTH
REF_FRAME      = TEME
TIME_SYSTEM    = UTC
MEAN_ELEMENT_THEORY = SGP/SGP4

EPOCH          = 2025-11-04T17:41:26.753280
MEAN_MOTION    = 15.50896374
ECCENTRICITY   = .00059474
INCLINATION    = 53.1601
RA_OF_ASC_NODE = 233.1510
ARG_OF_PERICENTER = 231.3377
MEAN_ANOMALY   = 128.7101

EPHEMERIS_TYPE = 0
CLASSIFICATION_TYPE = U
NORAD_CAT_ID   = 65886
ELEMENT_SET_NO = 999
REV_AT_EPOCH   = 562
BSTAR          = .6930669E-2
MEAN_MOTION_DOT = .430534E-2
MEAN_MOTION_DDOT = 0

CCSDS_OMM_VERS = 2.0
CREATION_DATE  = 
ORIGINATOR     = 

OBJECT_NAME    = STARLINK-35332
OBJECT_ID      = 2025-224F
CENTER_NAME    = EARTH
REF_FRAME      = TEME
TIME_SYSTEM    = UTC
MEAN_ELEMENT_THEORY = SGP/SGP4

EPOCH          = 2025-11-04T20:47:14.521920
MEAN_MOTION    = 15.49323037
ECCENTRICITY   = .00018809
INCLINATION    = 53.1602
RA_OF_ASC_NODE = 232.5354
ARG_OF_PERICENTER = 83.2418
MEAN_ANOMALY   = 276.8805

EPHEMERIS_TYPE = 0
CLASSIFICATION_TYPE = U
NORAD_CAT_ID   = 65887
ELEMENT_SET_NO = 999
REV_AT_EPOCH   = 572
BSTAR          = .18744742E-2
MEAN_MOTION_DOT = .105271E-2
MEAN_MOTION_DDOT = 0

CCSDS_OMM_VERS = 2.0
CREATION_DATE  = 
ORIGINATOR     = 

OBJECT_NAME    = STARLINK-35362
OBJECT_ID      = 2025-224G
CENTER_NAME    = EARTH
REF_FRAME      = TEME
TIME_SYSTEM    = UTC
MEAN_ELEMENT_THEORY = SGP/SGP4

EPOCH          = 2025-11-04T17:45:51.532128
MEAN_MOTION    = 15.48750734
ECCENTRICITY   = .00012501
INCLINATION    = 53.1602
RA_OF_ASC_NODE = 233.1778
ARG_OF_PERICENTER = 72.5011
MEAN_ANOMALY   = 287.6134

EPHEMERIS_TYPE = 0
CLASSIFICATION_TYPE = U
NORAD_CAT_ID   = 65888
ELEMENT_SET_NO = 999
REV_AT_EPOCH   = 567
BSTAR          = .12772461E-1
MEAN_MOTION_DOT = .756635E-2
MEAN_MOTION_DDOT = 0

CCSDS_OMM_VERS = 2.0
CREATION_DATE  = 
ORIGINATOR     = 

OBJECT_NAME    = STARLINK-35193
OBJECT_ID      = 2025-224H
CENTER_NAME    = EARTH
REF_FRAME      = TEME
TIME_SYSTEM    = UTC
MEAN_ELEMENT_THEORY = SGP/SGP4

EPOCH          = 2025-11-04T22:00:01.999584
MEAN_MOTION    = 15.49287445
ECCENTRICITY   = .00012849
INCLINATION    = 53.1606
RA_OF_ASC_NODE = 232.0565
ARG_OF_PERICENTER = 101.6387
MEAN_ANOMALY   = 294.8581

EPHEMERIS_TYPE = 0
CLASSIFICATION_TYPE = U
NORAD_CAT_ID   = 65889
ELEMENT_SET_NO = 999
REV_AT_EPOCH   = 580
BSTAR          = .3788114E-3
MEAN_MOTION_DOT = .20659E-3
MEAN_MOTION_DDOT = 0

CCSDS_OMM_VERS = 2.0
CREATION_DATE  = 
ORIGINATOR     = 

OBJECT_NAME    = STARLINK-34542
OBJECT_ID      = 2025-224J
CENTER_NAME    = EARTH
REF_FRAME      = TEME
TIME_SYSTEM    = UTC
MEAN_ELEMENT_THEORY = SGP/SGP4

EPOCH          = 2025-11-04T02:15:30.407616
MEAN_MOTION    = 15.49333216
ECCENTRICITY   = .00018208
INCLINATION    = 53.1605
RA_OF_ASC_NODE = 236.2482
ARG_OF_PERICENTER = 55.1504
MEAN_ANOMALY   = 304.9676

EPHEMERIS_TYPE = 0
CLASSIFICATION_TYPE = U
NORAD_CAT_ID   = 65890
ELEMENT_SET_NO = 999
REV_AT_EPOCH   = 562
BSTAR          = .16510334E-2
MEAN_MOTION_DOT = .9255E-3
MEAN_MOTION_DDOT = 0

CCSDS_OMM_VERS = 2.0
CREATION_DATE  = 
ORIGINATOR     = 

OBJECT_NAME    = STARLINK-34791
OBJECT_ID      = 2025-224K
CENTER_NAME    = EARTH
REF_FRAME      = TEME
TIME_SYSTEM    = UTC
MEAN_ELEMENT_THEORY = SGP/SGP4

EPOCH          = 2025-11-04T18:45:51.259392
MEAN_MOTION    = 15.49391052
ECCENTRICITY   = .00017492
INCLINATION    = 53.1613
RA_OF_ASC_NODE = 232.7097
ARG_OF_PERICENTER = 82.3798
MEAN_ANOMALY   = 277.7409

EPHEMERIS_TYPE = 0
CLASSIFICATION_TYPE = U
NORAD_CAT_ID   = 65891
ELEMENT_SET_NO = 999
REV_AT_EPOCH   = 573
BSTAR          = .17450284E-2
MEAN_MOTION_DOT = .98115E-3
MEAN_MOTION_DDOT = 0

CCSDS_OMM_VERS = 2.0
CREATION_DATE  = 
ORIGINATOR     = 

OBJECT_NAME    = STARLINK-34853
OBJECT_ID      = 2025-224L
CENTER_NAME    = EARTH
REF_FRAME      = TEME
TIME_SYSTEM    = UTC
MEAN_ELEMENT_THEORY = SGP/SGP4

EPOCH          = 2025-11-04T19:16:19.572384
MEAN_MOTION    = 15.49367881
ECCENTRICITY   = .00019203
INCLINATION    = 53.1610
RA_OF_ASC_NODE = 232.8535
ARG_OF_PERICENTER = 120.4044
MEAN_ANOMALY   = 239.7155

EPHEMERIS_TYPE = 0
CLASSIFICATION_TYPE = U
NORAD_CAT_ID   = 65892
ELEMENT_SET_NO = 999
REV_AT_EPOCH   = 566
BSTAR          = .18107255E-2
MEAN_MOTION_DOT = .101791E-2
MEAN_MOTION_DDOT = 0

CCSDS_OMM_VERS = 2.0
CREATION_DATE  = 
ORIGINATOR     = 

OBJECT_NAME    = STARLINK-34921
OBJECT_ID      = 2025-224M
CENTER_NAME    = EARTH
REF_FRAME      = TEME
TIME_SYSTEM    = UTC
MEAN_ELEMENT_THEORY = SGP/SGP4

EPOCH          = 2025-11-04T22:00:01.999584
MEAN_MOTION    = 15.49289494
ECCENTRICITY   = .00013215
INCLINATION    = 53.1608
RA_OF_ASC_NODE = 232.0523
ARG_OF_PERICENTER = 103.2902
MEAN_ANOMALY   = 295.1215

EPHEMERIS_TYPE = 0
CLASSIFICATION_TYPE = U
NORAD_CAT_ID   = 65893
ELEMENT_SET_NO = 999
REV_AT_EPOCH   = 582
BSTAR          = .32659263E-3
MEAN_MOTION_DOT = .17744E-3
MEAN_MOTION_DDOT = 0

